NORAD_CAT_ID,OBJECT_NAME,OBJECT_TYPE,EPOCH,MEAN_MOTION,ECCENTRICITY,INCLINATION,RA_OF_ASC_NODE,ARG_OF_PERICENTER,MEAN_ANOMALY,BSTAR,MEAN_MOTION_DOT,MEAN_MOTION_DDOT,TLE_LINE0,TLE_LINE1,TLE_LINE2,SEMIMAJOR_AXIS,PERIOD,APOGEE,PERIGEE,DECAYED
55752.0,STARLINK-5613,PAYLOAD,2024-02-23 21:59:19,14.9832843,0.0002651,70.0012,322.16,270.8065,89.279,-2.3972e-05,-3.79e-06,0.0,0 STARLINK-5613,1 55752U 23028M   24054.91619994 -.00000379  00000-0 -23972-4 0  9990,2 55752  70.0012 322.1600 0002651 270.8065  89.2790 14.98328430 54480,6950.198,96.107,573.905,570.22,0.0
55752.0,STARLINK-5613,PAYLOAD,2024-02-24 10:48:23,14.98330912,0.0002678,70.001,320.8145,267.1624,92.9228,1.661e-05,1.05e-06,0.0,0 STARLINK-5613,1 55752U 23028M   24055.45027733  .00000105  00000-0  16610-4 0  9990,2 55752  70.0010 320.8145 0002678 267.1624  92.9228 14.98330912 54560,6950.19,96.107,573.916,570.194,0.0
55752.0,STARLINK-5613,PAYLOAD,2024-02-24 17:12:56,14.9832469,0.0003156,70.0009,320.1397,266.1822,93.8976,-3.7241e-06,-1.37e-06,0.0,0 STARLINK-5613,1 55752U 23028M   24055.71732027 -.00000137  00000-0 -37241-5 0  9999,2 55752  70.0009 320.1397 0003156 266.1822  93.8976 14.98324690 54602,6950.209,96.107,574.268,569.881,0.0
55752.0,STARLINK-5613,PAYLOAD,2024-02-25 04:25:51,14.98340229,0.0003339,69.9996,318.9614,266.3171,93.7606,5.8602e-05,6.06e-06,0.0,0 STARLINK-5613,1 55752U 23028M   24056.18462749  .00000606  00000-0  58602-4 0  9994,2 55752  69.9996 318.9614 0003339 266.3171  93.7606 14.98340229 54675,6950.161,96.106,574.347,569.706,0.0
55752.0,STARLINK-5613,PAYLOAD,2024-02-25 10:50:24,14.98327478,0.0002731,70.0002,318.2862,279.0476,81.0374,3.338e-05,3.05e-06,0.0,0 STARLINK-5613,1 55752U 23028M   24056.45167824  .00000305  00000-0  33380-4 0  9992,2 55752  70.0002 318.2862 0002731 279.0476  81.0374 14.98327478 54716,6950.201,96.107,573.964,570.168,0.0
55752.0,STARLINK-5613,PAYLOAD,2024-02-25 22:03:21,14.98328365,0.0002911,70.0004,317.1085,270.116,89.9666,6.8536e-05,7.25e-06,0.0,0 STARLINK-5613,1 55752U 23028M   24056.91899490  .00000725  00000-0  68536-4 0  9991,2 55752  70.0004 317.1085 0002911 270.1160  89.9666 14.98328365 54789,6950.198,96.107,574.086,570.04,0.0
55752.0,STARLINK-5613,PAYLOAD,2024-02-26 02:51:44,14.98335965,0.0002837,70.0004,316.605,265.7765,94.307,7.9209e-05,8.52e-06,0.0,0 STARLINK-5613,1 55752U 23028M   24057.11926928  .00000852  00000-0  79209-4 0  9991,2 55752  70.0004 316.6050 0002837 265.7765  94.3070 14.98335965 54810,6950.174,96.107,574.011,570.068,0.0
55752.0,STARLINK-5613,PAYLOAD,2024-02-26 18:53:06,14.98324046,0.0002932,70.0009,314.9224,264.3468,95.7357,-7.5841e-06,-1.83e-06,0.0,0 STARLINK-5613,1 55752U 23028M   24057.78687876 -.00000183  00000-0 -75841-5 0  9998,2 55752  70.0009 314.9224 0002932 264.3468  95.7357 14.98324046 54912,6950.211,96.107,574.114,570.039,0.0
55752.0,STARLINK-5613,PAYLOAD,2024-02-26 22:05:22,14.98323561,0.000296,70.0007,314.5861,267.1318,92.9502,-1.5868e-05,-2.82e-06,0.0,0 STARLINK-5613,1 55752U 23028M   24057.92039988 -.00000282  00000-0 -15868-4 0  9991,2 55752  70.0007 314.5861 0002960 267.1318  92.9502 14.98323561 54933,6950.213,96.107,574.135,570.021,0.0
55752.0,STARLINK-5613,PAYLOAD,2024-02-27 10:54:26,14.98330767,0.0002911,70.0004,313.239,267.4131,92.6695,-0.00011345,-1.446e-05,0.0,0 STARLINK-5613,1 55752U 23028M   24058.45447797 -.00001446  00000-0 -11345-3 0  9999,2 55752  70.0004 313.2390 0002911 267.4131  92.6695 14.98330767 55011,6950.191,96.107,574.079,570.032,0.0
55752.0,STARLINK-5613,PAYLOAD,2024-02-27 20:31:15,14.9833146,0.0002759,70.0,312.2283,269.5269,90.5574,-1.7356e-05,-3e-06,0.0,0 STARLINK-5613,1 55752U 23028M   24058.85503553 -.00000300  00000-0 -17356-4 0  9993,2 55752  70.0000 312.2283 0002759 269.5269  90.5574 14.98331460 55072,6950.188,96.107,573.971,570.136,0.0
55752.0,STARLINK-5613,PAYLOAD,2024-02-27 22:07:23,14.98328341,0.0003025,69.9997,312.0605,269.6069,90.4743,1.5698e-05,9.4e-07,0.0,0 STARLINK-5613,1 55752U 23028M   24058.92179624  .00000094  00000-0  15698-4 0  9994,2 55752  69.9997 312.0605 0003025 269.6069  90.4743 14.98328341 55088,6950.198,96.107,574.165,569.961,0.0
55752.0,STARLINK-5613,PAYLOAD,2024-02-28 02:55:47,14.98332819,0.0002888,70.0,311.5557,267.191,92.8919,2.8236e-05,2.44e-06,0.0,0 STARLINK-5613,1 55752U 23028M   24059.12207285  .00000244  00000-0  28236-4 0  9991,2 55752  70.0000 311.5557 0002888 267.1910  92.8919 14.98332819 55110,6950.184,96.107,574.056,570.042,0.0
55752.0,STARLINK-5613,PAYLOAD,2024-02-28 22:09:24,14.98327301,0.000285,69.9998,309.5358,271.4357,88.6476,4.7822e-05,4.78e-06,0.0,0 STARLINK-5613,1 55752U 23028M   24059.92319552  .00000478  00000-0  47822-4 0  9991,2 55752  69.9998 309.5358 0002850 271.4357  88.6476 14.98327301 55235,6950.201,96.107,574.047,570.085,0.0
55752.0,STARLINK-5613,PAYLOAD,2024-02-29 02:57:48,14.98328885,0.0002846,69.9999,309.0308,271.6141,88.4692,6.1421e-05,6.4e-06,0.0,0 STARLINK-5613,1 55752U 23028M   24060.12347434  .00000640  00000-0  61421-4 0  9997,2 55752  69.9999 309.0308 0002846 271.6141  88.4692 14.98328885 55263,6950.196,96.107,574.039,570.083,0.0
55752.0,STARLINK-5613,PAYLOAD,2024-02-29 09:22:20,14.98328161,0.000281,70.0,308.3575,272.4943,87.5895,1.0164e-05,2.8e-07,0.0,0 STARLINK-5613,1 55752U 23028M   24060.39051640  .00000028  00000-0  10164-4 0  9995,2 55752  70.0000 308.3575 0002810 272.4943  87.5895 14.98328161 55304,6950.199,96.107,574.017,570.111,0.0
55752.0,STARLINK-5613,PAYLOAD,2024-02-29 22:11:25,14.98330947,0.0002819,70.0,307.0112,270.7554,89.3282,-8.0538e-06,-1.89e-06,0.0,0 STARLINK-5613,1 55752U 23028M   24060.92459507 -.00000189  00000-0 -80538-5 0  9991,2 55752  70.0000 307.0112 0002819 270.7554  89.3282 14.98330947 55388,6950.19,96.107,574.014,570.096,0.0
55752.0,STARLINK-5613,PAYLOAD,2024-03-01 02:59:49,14.98331682,0.0002831,69.9999,306.5063,270.1499,89.9335,-4.6504e-06,-1.48e-06,0.0,0 STARLINK-5613,1 55752U 23028M   24061.12487434 -.00000148  00000-0 -46504-5 0  9994,2 55752  69.9999 306.5063 0002831 270.1499  89.9335 14.98331682 55413,6950.188,96.107,574.02,570.085,0.0
55752.0,STARLINK-5613,PAYLOAD,2024-03-01 09:24:21,14.98331789,0.0002825,69.9999,305.833,269.857,90.2265,-5.4497e-06,-1.58e-06,0.0,0 STARLINK-5613,1 55752U 23028M   24061.39191393 -.00000158  00000-0 -54497-5 0  9990,2 55752  69.9999 305.8330 0002825 269.8570  90.2265 14.98331789 55459,6950.187,96.107,574.016,570.089,0.0
55752.0,STARLINK-5613,PAYLOAD,2024-03-01 22:13:25,14.98333058,0.0002867,69.9997,304.486,268.7778,91.3053,3.2247e-05,2.92e-06,0.0,0 STARLINK-5613,1 55752U 23028M   24061.92599077  .00000292  00000-0  32247-4 0  9995,2 55752  69.9997 304.4860 0002867 268.7778  91.3053 14.98333058 55531,6950.183,96.107,574.041,570.056,0.0
55752.0,STARLINK-5613,PAYLOAD,2024-03-02 01:25:41,14.98335891,0.0002824,69.9998,304.1494,268.5351,91.5485,6.3983e-05,6.71e-06,0.0,0 STARLINK-5613,1 55752U 23028M   24062.05950761  .00000671  00000-0  63983-4 0  9993,2 55752  69.9998 304.1494 0002824 268.5351  91.5485 14.98335891 55550,6950.175,96.107,574.002,570.077,0.0
55752.0,STARLINK-5613,PAYLOAD,2024-03-02 20:39:18,14.98324108,0.0002819,69.9996,302.1294,268.5927,91.4909,3.2714e-05,2.97e-06,0.0,0 STARLINK-5613,1 55752U 23028M   24062.86063543  .00000297  00000-0  32714-4 0  9997,2 55752  69.9996 302.1294 0002819 268.5927  91.4909 14.98324108 55679,6950.211,96.107,574.035,570.117,0.0
55752.0,STARLINK-5613,PAYLOAD,2024-03-02 22:15:26,14.98326954,0.0002798,69.9997,301.9611,267.4315,92.6523,-2.1849e-05,-3.54e-06,0.0,0 STARLINK-5613,1 55752U 23028M   24062.92739481 -.00000354  00000-0 -21849-4 0  9998,2 55752  69.9997 301.9611 0002798 267.4315  92.6523 14.98326954 55682,6950.202,96.107,574.012,570.123,0.0
55752.0,STARLINK-5613,PAYLOAD,2024-03-03 09:28:23,14.98328755,0.0002953,69.9995,300.7822,269.654,90.4281,-3.5904e-05,-5.21e-06,0.0,0 STARLINK-5613,1 55752U 23028M   24063.39471410 -.00000521  00000-0 -35904-4 0  9998,2 55752  69.9995 300.7822 0002953 269.6540  90.4281 14.98328755 55754,6950.197,96.107,574.114,570.009,0.0
55752.0,STARLINK-5613,PAYLOAD,2024-03-03 20:41:19,14.98327747,0.0002976,69.9994,299.6036,268.7776,91.3042,-1.2262e-06,-1.08e-06,0.0,0 STARLINK-5613,1 55752U 23028M   24063.86203386 -.00000108  00000-0 -12262-5 0  9999,2 55752  69.9994 299.6036 0002976 268.7776  91.3042 14.98327747 55825,6950.2,96.107,574.133,569.996,0.0
55752.0,STARLINK-5613,PAYLOAD,2024-03-04 09:30:23,14.98337983,0.0002734,69.9994,298.2571,262.8942,97.1906,2.6113e-05,2.19e-06,0.0,0 STARLINK-5613,1 55752U 23028M   24064.39610543  .00000219  00000-0  26113-4 0  9995,2 55752  69.9994 298.2571 0002734 262.8942  97.1906 14.98337983 55901,6950.168,96.106,573.933,570.133,0.0
55752.0,STARLINK-5613,PAYLOAD,2024-03-04 22:19:28,14.9830113,0.0002679,69.9992,296.9108,269.3101,90.7751,0.00075999,8.98e-05,0.0,0 STARLINK-5613,1 55752U 23028M   24064.93018604  .00008980  00000-0  75999-3 0  9993,2 55752  69.9992 296.9108 0002679 269.3101  90.7751 14.98301130 55987,6950.282,96.109,574.009,570.285,0.0
55752.0,STARLINK-5613,PAYLOAD,2024-03-05 01:31:44,14.98282456,0.0002545,69.9992,296.5742,269.9098,90.1769,0.0010986,0.00013023,0.0,0 STARLINK-5613,1 55752U 23028M   24065.06371120  .00013023  00000-0  10986-2 0  9991,2 55752  69.9992 296.5742 0002545 269.9098  90.1769 14.98282456 56006,6950.34,96.11,573.974,570.436,0.0
55752.0,STARLINK-5613,PAYLOAD,2024-03-05 19:09:13,14.9832312,0.00029,69.9989,294.7225,271.5723,88.5104,-4.6012e-05,-6.42e-06,0.0,0 STARLINK-5613,1 55752U 23028M   24065.79807446 -.00000642  00000-0 -46012-4 0  9992,2 55752  69.9989 294.7225 0002900 271.5723  88.5104 14.98323120 56117,6950.214,96.107,574.095,570.064,0.0
55752.0,STARLINK-5613,PAYLOAD,2024-03-06 01:33:45,14.9832461,0.0002966,69.9987,294.0493,268.7582,91.3237,-9.48e-05,-1.224e-05,0.0,0 STARLINK-5613,1 55752U 23028M   24066.06511552 -.00001224  00000-0 -94800-4 0  9998,2 55752  69.9987 294.0493 0002966 268.7582  91.3237 14.98324610 56156,6950.21,96.107,574.136,570.013,0.0
